start=new Date('2023-01-14T00:00:00.000Z').valueOf();
sats=[{"RA_OF_ASC_NODE":"250.8140","MEAN_ANOMALY":"305.0153","ARG_OF_PERICENTER":"55.1016","ELEMENT_SET_NO":"999","EPHEMERIS_TYPE":"0","SEMIMAJOR_AXIS":"6917.872","MEAN_MOTION_DDOT":"0.0000000000000","MEAN_ELEMENT_THEORY":"SGP4","PERIAPSIS":"538.433","REF_FRAME":"TEME","TIME_SYSTEM":"UTC","ECCENTRICITY":"0.00018850","RCS_SIZE":"LARGE","CENTER_NAME":"EARTH","APOAPSIS":"541.041","LAUNCH_DATE":"2022-08-10","COUNTRY_CODE":"US","CLASSIFICATION_TYPE":"U","REV_AT_EPOCH":"2476","OBJECT_NAME":"STARLINK-4528","TLE_LINE1":"1 53399U 22097M   23013.76905910  .00001179  00000-0  92132-4 0  9994","BSTAR":"0.00009213200000","GP_ID":"222976509","DECAY_DATE":null,"FILE":"3743722","SITE":"AFETR","OBJECT_TYPE":"PAYLOAD","EPOCH":"2023-01-13T18:27:26.706240","MEAN_MOTION":"15.08842621","INCLINATION":"53.2155","NORAD_CAT_ID":"53399","MEAN_MOTION_DOT":"0.00001179","TLE_LINE2":"2 53399  53.2155 250.8140 0001885  55.1016 305.0153 15.08842621 24765","PERIOD":"95.437","OBJECT_ID":"2022-097M"},{"TIME_SYSTEM":"UTC","ECCENTRICITY":"0.00023840","RCS_SIZE":"LARGE","CENTER_NAME":"EARTH","RA_OF_ASC_NODE":"250.0124","ARG_OF_PERICENTER":"36.5802","MEAN_ANOMALY":"323.5352","ELEMENT_SET_NO":"999","EPHEMERIS_TYPE":"0","MEAN_MOTION_DDOT":"0.0000000000000","SEMIMAJOR_AXIS":"6917.858","MEAN_ELEMENT_THEORY":"SGP4","REF_FRAME":"TEME","PERIAPSIS":"538.073","FILE":"3743722","DECAY_DATE":null,"SITE":"AFETR","OBJECT_TYPE":"PAYLOAD","EPOCH":"2023-01-13T22:41:48.366816","MEAN_MOTION":"15.08847423","INCLINATION":"53.2174","NORAD_CAT_ID":"53400","TLE_LINE2":"2 53400  53.2174 250.0124 0002384  36.5802 323.5352 15.08847423 24798","PERIOD":"95.437","MEAN_MOTION_DOT":"0.00005860","OBJECT_ID":"2022-097N","APOAPSIS":"541.372","COUNTRY_CODE":"US","LAUNCH_DATE":"2022-08-10","CLASSIFICATION_TYPE":"U","OBJECT_NAME":"STARLINK-4520","REV_AT_EPOCH":"2479","TLE_LINE1":"1 53400U 22097N   23013.94569869  .00005860  00000-0  38587-3 0  9990","BSTAR":"0.00038587000000","GP_ID":"222975794"},{"NORAD_CAT_ID":"53401","PERIOD":"95.438","TLE_LINE2":"2 53401  53.2159 250.8459 0002355  33.9135 326.2007 15.08835887 24764","MEAN_MOTION_DOT":"0.00002870","OBJECT_ID":"2022-097P","INCLINATION":"53.2159","OBJECT_TYPE":"PAYLOAD","MEAN_MOTION":"15.08835887","EPOCH":"2023-01-13T18:16:50.947392","DECAY_DATE":null,"FILE":"3743722","SITE":"AFETR","GP_ID":"222976035","BSTAR":"0.00019838000000","REV_AT_EPOCH":"2476","OBJECT_NAME":"STARLINK-4525","CLASSIFICATION_TYPE":"U","TLE_LINE1":"1 53401U 22097P   23013.76170078  .00002870  00000-0  19838-3 0  9997","LAUNCH_DATE":"2022-08-10","COUNTRY_CODE":"US","APOAPSIS":"541.387","CENTER_NAME":"EARTH","RCS_SIZE":"LARGE","ECCENTRICITY":"0.00023550","TIME_SYSTEM":"UTC","PERIAPSIS":"538.129","REF_FRAME":"TEME","MEAN_ELEMENT_THEORY":"SGP4","ELEMENT_SET_NO":"999","MEAN_MOTION_DDOT":"0.0000000000000","SEMIMAJOR_AXIS":"6917.893","EPHEMERIS_TYPE":"0","RA_OF_ASC_NODE":"250.8459","MEAN_ANOMALY":"326.2007","ARG_OF_PERICENTER":"33.9135"},{"INCLINATION":"53.2169","NORAD_CAT_ID":"53402","TLE_LINE2":"2 53402  53.2169 250.0206 0001077  83.2733 276.8382 15.08840461 24793","PERIOD":"95.438","OBJECT_ID":"2022-097Q","MEAN_MOTION_DOT":"0.00002312","DECAY_DATE":null,"FILE":"3743722","SITE":"AFETR","OBJECT_TYPE":"PAYLOAD","EPOCH":"2023-01-13T22:36:30.694752","MEAN_MOTION":"15.08840461","CLASSIFICATION_TYPE":"U","OBJECT_NAME":"STARLINK-4499","REV_AT_EPOCH":"2479","TLE_LINE1":"1 53402U 22097Q   23013.94202193  .00002312  00000-0  16327-3 0  9993","BSTAR":"0.00016327000000","GP_ID":"222976274","APOAPSIS":"540.489","LAUNCH_DATE":"2022-08-10","COUNTRY_CODE":"US","RCS_SIZE":"LARGE","CENTER_NAME":"EARTH","TIME_SYSTEM":"UTC","ECCENTRICITY":"0.00010770","MEAN_ELEMENT_THEORY":"SGP4","REF_FRAME":"TEME","PERIAPSIS":"538.999","RA_OF_ASC_NODE":"250.0206","MEAN_ANOMALY":"276.8382","ARG_OF_PERICENTER":"83.2733","ELEMENT_SET_NO":"999","EPHEMERIS_TYPE":"0","MEAN_MOTION_DDOT":"0.0000000000000","SEMIMAJOR_AXIS":"6917.879"},{"ECCENTRICITY":"0.00020280","TIME_SYSTEM":"UTC","CENTER_NAME":"EARTH","RCS_SIZE":"LARGE","MEAN_MOTION_DDOT":"0.0000000000000","SEMIMAJOR_AXIS":"6917.873","EPHEMERIS_TYPE":"0","ELEMENT_SET_NO":"999","MEAN_ANOMALY":"314.1794","ARG_OF_PERICENTER":"45.9365","RA_OF_ASC_NODE":"249.9698","REF_FRAME":"TEME","PERIAPSIS":"538.335","MEAN_ELEMENT_THEORY":"SGP4","MEAN_MOTION":"15.08842454","EPOCH":"2023-01-13T22:53:47.182848","OBJECT_TYPE":"PAYLOAD","SITE":"AFETR","DECAY_DATE":null,"FILE":"3743722","TLE_LINE2":"2 53403  53.2171 249.9698 0002028  45.9365 314.1794 15.08842454 24799","OBJECT_ID":"2022-097R","PERIOD":"95.437","MEAN_MOTION_DOT":"0.00011323","NORAD_CAT_ID":"53403","INCLINATION":"53.2171","COUNTRY_CODE":"US","LAUNCH_DATE":"2022-08-10","APOAPSIS":"541.141","GP_ID":"222976983","BSTAR":"0.00072830000000","TLE_LINE1":"1 53403U 22097R   23013.95401832  .00011323  00000-0  72830-3 0  9999","OBJECT_NAME":"STARLINK-4507","CLASSIFICATION_TYPE":"U","REV_AT_EPOCH":"2479"},{"MEAN_ANOMALY":"312.4099","ARG_OF_PERICENTER":"47.7058","RA_OF_ASC_NODE":"240.3624","MEAN_MOTION_DDOT":"0.0000000000000","SEMIMAJOR_AXIS":"6917.924","EPHEMERIS_TYPE":"0","ELEMENT_SET_NO":"999","REF_FRAME":"TEME","PERIAPSIS":"538.441","MEAN_ELEMENT_THEORY":"SGP4","TIME_SYSTEM":"UTC","ECCENTRICITY":"0.00019490","RCS_SIZE":"LARGE","CENTER_NAME":"EARTH","APOAPSIS":"541.138","COUNTRY_CODE":"US","LAUNCH_DATE":"2022-08-10","TLE_LINE1":"1 53404U 22097S   23013.86566787 -.00002845  00000-0 -16077-3 0  9993","CLASSIFICATION_TYPE":"U","OBJECT_NAME":"STARLINK-4509","REV_AT_EPOCH":"2491","GP_ID":"222975303","BSTAR":"-0.00016077000000","SITE":"AFETR","FILE":"3743722","DECAY_DATE":null,"MEAN_MOTION":"15.08825634","EPOCH":"2023-01-13T20:46:33.703968","OBJECT_TYPE":"PAYLOAD","INCLINATION":"53.2150","TLE_LINE2":"2 53404  53.2150 240.3624 0001949  47.7058 312.4099 15.08825634 24915","PERIOD":"95.438","MEAN_MOTION_DOT":"-0.00002845","OBJECT_ID":"2022-097S","NORAD_CAT_ID":"53404"},{"ELEMENT_SET_NO":"999","SEMIMAJOR_AXIS":"6917.831","MEAN_MOTION_DDOT":"0.0000000000000","EPHEMERIS_TYPE":"0","RA_OF_ASC_NODE":"254.5083","ARG_OF_PERICENTER":"61.9020","MEAN_ANOMALY":"298.2159","REF_FRAME":"TEME","PERIAPSIS":"538.416","MEAN_ELEMENT_THEORY":"SGP4","ECCENTRICITY":"0.00018510","TIME_SYSTEM":"UTC","CENTER_NAME":"EARTH","RCS_SIZE":"LARGE","LAUNCH_DATE":"2022-08-10","COUNTRY_CODE":"US","APOAPSIS":"540.977","GP_ID":"222892180","BSTAR":"-0.00027730000000","CLASSIFICATION_TYPE":"U","OBJECT_NAME":"STARLINK-4510","REV_AT_EPOCH":"2464","TLE_LINE1":"1 53405U 22097T   23012.94473401 -.00004701  00000-0 -27730-3 0  9993","OBJECT_TYPE":"PAYLOAD","MEAN_MOTION":"15.08856041","EPOCH":"2023-01-12T22:40:25.018464","DECAY_DATE":null,"FILE":"3742227","SITE":"AFETR","NORAD_CAT_ID":"53405","PERIOD":"95.437","TLE_LINE2":"2 53405  53.2167 254.5083 0001851  61.9020 298.2159 15.08856041 24643","OBJECT_ID":"2022-097T","MEAN_MOTION_DOT":"-0.00004701","INCLINATION":"53.2167"},{"GP_ID":"222976749","BSTAR":"0.00003846200000","CLASSIFICATION_TYPE":"U","REV_AT_EPOCH":"2492","OBJECT_NAME":"STARLINK-4533","TLE_LINE1":"1 53406U 22097U   23013.91349867  .00000324  00000-0  38462-4 0  9990","COUNTRY_CODE":"US","LAUNCH_DATE":"2022-08-10","APOAPSIS":"540.781","NORAD_CAT_ID":"53406","TLE_LINE2":"2 53406  53.2161 240.1478 0001495  73.6539 286.4617 15.08839704 24922","PERIOD":"95.438","MEAN_MOTION_DOT":"0.00000324","OBJECT_ID":"2022-097U","INCLINATION":"53.2161","OBJECT_TYPE":"PAYLOAD","MEAN_MOTION":"15.08839704","EPOCH":"2023-01-13T21:55:26.285088","DECAY_DATE":null,"FILE":"3743722","SITE":"AFETR","REF_FRAME":"TEME","PERIAPSIS":"538.712","MEAN_ELEMENT_THEORY":"SGP4","ELEMENT_SET_NO":"999","SEMIMAJOR_AXIS":"6917.881","MEAN_MOTION_DDOT":"0.0000000000000","EPHEMERIS_TYPE":"0","RA_OF_ASC_NODE":"240.1478","MEAN_ANOMALY":"286.4617","ARG_OF_PERICENTER":"73.6539","CENTER_NAME":"EARTH","RCS_SIZE":"LARGE","ECCENTRICITY":"0.00014950","TIME_SYSTEM":"UTC"},{"OBJECT_NAME":"STARLINK-4537","REV_AT_EPOCH":"2505","CLASSIFICATION_TYPE":"U","TLE_LINE1":"1 53407U 22097V   23013.85560613 -.00005313  00000-0 -31632-3 0  9994","BSTAR":"-0.00031632000000","GP_ID":"222976510","APOAPSIS":"540.956","LAUNCH_DATE":"2022-08-10","COUNTRY_CODE":"US","INCLINATION":"53.2161","NORAD_CAT_ID":"53407","TLE_LINE2":"2 53407  53.2161 230.6496 0001567  56.0949 304.0192 15.08798667 25059","MEAN_MOTION_DOT":"-0.00005313","PERIOD":"95.440","OBJECT_ID":"2022-097V","FILE":"3743722","DECAY_DATE":null,"SITE":"AFETR","OBJECT_TYPE":"PAYLOAD","EPOCH":"2023-01-13T20:32:04.369632","MEAN_MOTION":"15.08798667","MEAN_ELEMENT_THEORY":"SGP4","PERIAPSIS":"538.788","REF_FRAME":"TEME","RA_OF_ASC_NODE":"230.6496","MEAN_ANOMALY":"304.0192","ARG_OF_PERICENTER":"56.0949","ELEMENT_SET_NO":"999","EPHEMERIS_TYPE":"0","SEMIMAJOR_AXIS":"6918.007","MEAN_MOTION_DDOT":"0.0000000000000","RCS_SIZE":"LARGE","CENTER_NAME":"EARTH","TIME_SYSTEM":"UTC","ECCENTRICITY":"0.00015670"},{"GP_ID":"222975795","BSTAR":"-0.00008040300000","CLASSIFICATION_TYPE":"U","OBJECT_NAME":"STARLINK-4491","REV_AT_EPOCH":"2492","TLE_LINE1":"1 53408U 22097W   23013.92454674 -.00001567  00000-0 -80403-4 0  9990","COUNTRY_CODE":"US","LAUNCH_DATE":"2022-08-10","APOAPSIS":"540.892","NORAD_CAT_ID":"53408","TLE_LINE2":"2 53408  53.2156 240.1027 0001583  59.0738 301.0410 15.08823049 24925","OBJECT_ID":"2022-097W","PERIOD":"95.439","MEAN_MOTION_DOT":"-0.00001567","INCLINATION":"53.2156","OBJECT_TYPE":"PAYLOAD","MEAN_MOTION":"15.08823049","EPOCH":"2023-01-13T22:11:20.838336","FILE":"3743722","DECAY_DATE":null,"SITE":"AFETR","REF_FRAME":"TEME","PERIAPSIS":"538.702","MEAN_ELEMENT_THEORY":"SGP4","ELEMENT_SET_NO":"999","MEAN_MOTION_DDOT":"0.0000000000000","SEMIMAJOR_AXIS":"6917.932","EPHEMERIS_TYPE":"0","RA_OF_ASC_NODE":"240.1027","ARG_OF_PERICENTER":"59.0738","MEAN_ANOMALY":"301.0410","CENTER_NAME":"EARTH","RCS_SIZE":"LARGE","ECCENTRICITY":"0.00015830","TIME_SYSTEM":"UTC"}];
